{
  "type": "FeatureCollection",
  "features": [
    {
      "type": "Feature",
      "properties": {
        "norad_id": 66439,
        "name": "STARLINK-35327",
        "group": "last-30-days",
        "lat": 31.241167766900478,
        "lon": -151.27081424830578,
        "alt_km": 437.3838784445752,
        "timestamp": "2025-12-08T23:34:02.738643+00:00",
        "meta_object_name": "STARLINK-35327",
        "meta_object_id": "2025-259T",
        "meta_epoch": "2025-12-08T14:00:01.999872",
        "meta_mean_motion": 15.43272009,
        "meta_eccentricity": 0.00015041,
        "meta_inclination": 43.0004,
        "meta_ra_of_asc_node": 71.6465,
        "meta_arg_of_pericenter": 279.5159,
        "meta_mean_anomaly": 154.8364,
        "meta_ephemeris_type": 0,
        "meta_classification_type": "U",
        "meta_norad_cat_id": 66439,
        "meta_element_set_no": 999,
        "meta_rev_at_epoch": 561,
        "meta_bstar": -0.047134273,
        "meta_mean_motion_dot": -0.01921806,
        "meta_mean_motion_ddot": 0,
        "tle_line1": "1 66439U 25259T   25342.58335648 -.01921806  00000+0 -47134-1 0  9997",
        "tle_line2": "2 66439  43.0004  71.6465 0001504 279.5159 154.8364 15.43272009  5614"
      },
      "geometry": {
        "type": "Point",
        "coordinates": [
          -151.27081424830578,
          31.241167766900478
        ]
      }
    },
    {
      "type": "Feature",
      "properties": {
        "norad_id": 66440,
        "name": "STARLINK-35405",
        "group": "last-30-days",
        "lat": 7.060116236029609,
        "lon": -118.39616194967488,
        "alt_km": 418.92631434264877,
        "timestamp": "2025-12-08T23:34:02.738653+00:00",
        "meta_object_name": "STARLINK-35405",
        "meta_object_id": "2025-259U",
        "meta_epoch": "2025-12-08T07:22:31.709280",
        "meta_mean_motion": 15.5025432,
        "meta_eccentricity": 0.00089559,
        "meta_inclination": 43.0019,
        "meta_ra_of_asc_node": 73.1858,
        "meta_arg_of_pericenter": 293.5691,
        "meta_mean_anomaly": 66.4228,
        "meta_ephemeris_type": 0,
        "meta_classification_type": "U",
        "meta_norad_cat_id": 66440,
        "meta_element_set_no": 999,
        "meta_rev_at_epoch": 548,
        "meta_bstar": -0.0014583339,
        "meta_mean_motion_dot": -0.00084166,
        "meta_mean_motion_ddot": 0,
        "tle_line1": "1 66440U 25259U   25342.30731145 -.00084166  00000+0 -14583-2 0  9992",
        "tle_line2": "2 66440  43.0019  73.1858 0008955 293.5691  66.4228 15.50254320  5485"
      },
      "geometry": {
        "type": "Point",
        "coordinates": [
          -118.39616194967488,
          7.060116236029609
        ]
      }
    },
    {
      "type": "Feature",
      "properties": {
        "norad_id": 66441,
        "name": "STARLINK-35426",
        "group": "last-30-days",
        "lat": 4.973245710301026,
        "lon": -116.1234444865335,
        "alt_km": 416.01155602865765,
        "timestamp": "2025-12-08T23:34:02.738664+00:00",
        "meta_object_name": "STARLINK-35426",
        "meta_object_id": "2025-259V",
        "meta_epoch": "2025-12-08T13:33:01.913472",
        "meta_mean_motion": 15.50516656,
        "meta_eccentricity": 0.00042414,
        "meta_inclination": 43.0012,
        "meta_ra_of_asc_node": 71.6764,
        "meta_arg_of_pericenter": 306.6467,
        "meta_mean_anomaly": 53.4003,
        "meta_ephemeris_type": 0,
        "meta_classification_type": "U",
        "meta_norad_cat_id": 66441,
        "meta_element_set_no": 999,
        "meta_rev_at_epoch": 552,
        "meta_bstar": 0.0027131816,
        "meta_mean_motion_dot": 0.00161833,
        "meta_mean_motion_ddot": 0,
        "tle_line1": "1 66441U 25259V   25342.56460548  .00161833  00000+0  27132-2 0  9996",
        "tle_line2": "2 66441  43.0012  71.6764 0004241 306.6467  53.4003 15.50516656  5524"
      },
      "geometry": {
        "type": "Point",
        "coordinates": [
          -116.1234444865335,
          4.973245710301026
        ]
      }
    },
    {
      "type": "Feature",
      "properties": {
        "norad_id": 66442,
        "name": "STARLINK-34724",
        "group": "last-30-days",
        "lat": -4.685708688143286,
        "lon": -105.75343305833069,
        "alt_km": 391.8371335725369,
        "timestamp": "2025-12-08T23:34:02.738673+00:00",
        "meta_object_name": "STARLINK-34724",
        "meta_object_id": "2025-259W",
        "meta_epoch": "2025-12-08T08:53:45.907872",
        "meta_mean_motion": 15.53152076,
        "meta_eccentricity": 0.00114498,
        "meta_inclination": 43.0013,
        "meta_ra_of_asc_node": 72.8021,
        "meta_arg_of_pericenter": 246.0314,
        "meta_mean_anomaly": 113.9348,
        "meta_ephemeris_type": 0,
        "meta_classification_type": "U",
        "meta_norad_cat_id": 66442,
        "meta_element_set_no": 999,
        "meta_rev_at_epoch": 549,
        "meta_bstar": 0.052423452,
        "meta_mean_motion_dot": 0.03860638,
        "meta_mean_motion_ddot": 0,
        "tle_line1": "1 66442U 25259W   25342.37067023  .03860638  00000+0  52423-1 0  9999",
        "tle_line2": "2 66442  43.0013  72.8021 0011449 246.0314 113.9348 15.53152076  5496"
      },
      "geometry": {
        "type": "Point",
        "coordinates": [
          -105.75343305833069,
          -4.685708688143286
        ]
      }
    },
    {
      "type": "Feature",
      "properties": {
        "norad_id": 66443,
        "name": "STARLINK-35219",
        "group": "last-30-days",
        "lat": 2.2536021679473293,
        "lon": -113.19729831618618,
        "alt_km": 414.46832082335186,
        "timestamp": "2025-12-08T23:34:02.738685+00:00",
        "meta_object_name": "STARLINK-35219",
        "meta_object_id": "2025-259X",
        "meta_epoch": "2025-12-08T15:04:46.969824",
        "meta_mean_motion": 15.5058509,
        "meta_eccentricity": 3.72e-05,
        "meta_inclination": 43.0003,
        "meta_ra_of_asc_node": 71.2922,
        "meta_arg_of_pericenter": 79.7553,
        "meta_mean_anomaly": 280.3349,
        "meta_ephemeris_type": 0,
        "meta_classification_type": "U",
        "meta_norad_cat_id": 66443,
        "meta_element_set_no": 999,
        "meta_rev_at_epoch": 542,
        "meta_bstar": 0.00034479704,
        "meta_mean_motion_dot": 0.00019942,
        "meta_mean_motion_ddot": 0,
        "tle_line1": "1 66443U 25259X   25342.62832141  .00019942  00000+0  34480-3 0  9995",
        "tle_line2": "2 66443  43.0003  71.2922 0000372  79.7553 280.3349 15.50585090  5424"
      },
      "geometry": {
        "type": "Point",
        "coordinates": [
          -113.19729831618618,
          2.2536021679473293
        ]
      }
    },
    {
      "type": "Feature",
      "properties": {
        "norad_id": 66444,
        "name": "STARLINK-35360",
        "group": "last-30-days",
        "lat": -1.7085597147662175,
        "lon": -108.9571658385969,
        "alt_km": 414.71798697251415,
        "timestamp": "2025-12-08T23:34:02.738696+00:00",
        "meta_object_name": "STARLINK-35360",
        "meta_object_id": "2025-259Y",
        "meta_epoch": "2025-12-08T15:03:17.438688",
        "meta_mean_motion": 15.50615761,
        "meta_eccentricity": 0.00022556,
        "meta_inclination": 43.0012,
        "meta_ra_of_asc_node": 71.2839,
        "meta_arg_of_pericenter": 271.2736,
        "meta_mean_anomaly": 88.7866,
        "meta_ephemeris_type": 0,
        "meta_classification_type": "U",
        "meta_norad_cat_id": 66444,
        "meta_element_set_no": 999,
        "meta_rev_at_epoch": 553,
        "meta_bstar": 0.0019176658,
        "meta_mean_motion_dot": 0.00113963,
        "meta_mean_motion_ddot": 0,
        "tle_line1": "1 66444U 25259Y   25342.62728517  .00113963  00000+0  19177-2 0  9990",
        "tle_line2": "2 66444  43.0012  71.2839 0002255 271.2736  88.7866 15.50615761  5531"
      },
      "geometry": {
        "type": "Point",
        "coordinates": [
          -108.9571658385969,
          -1.7085597147662175
        ]
      }
    },
    {
      "type": "Feature",
      "properties": {
        "norad_id": 66445,
        "name": "STARLINK-34698",
        "group": "last-30-days",
        "lat": 0.9839776041451244,
        "lon": -111.83656686643498,
        "alt_km": 414.2877232101755,
        "timestamp": "2025-12-08T23:34:02.738706+00:00",
        "meta_object_name": "STARLINK-34698",
        "meta_object_id": "2025-259Z",
        "meta_epoch": "2025-12-08T13:31:32.441952",
        "meta_mean_motion": 15.50582419,
        "meta_eccentricity": 0.00024286,
        "meta_inclination": 43.0056,
        "meta_ra_of_asc_node": 71.6672,
        "meta_arg_of_pericenter": 260.1314,
        "meta_mean_anomaly": 99.9272,
        "meta_ephemeris_type": 0,
        "meta_classification_type": "U",
        "meta_norad_cat_id": 66445,
        "meta_element_set_no": 999,
        "meta_rev_at_epoch": 541,
        "meta_bstar": 0.0015531654,
        "meta_mean_motion_dot": 0.00091866,
        "meta_mean_motion_ddot": 0,
        "tle_line1": "1 66445U 25259Z   25342.56356993  .00091866  00000+0  15532-2 0  9997",
        "tle_line2": "2 66445  43.0056  71.6672 0002428 260.1314  99.9272 15.50582419  5415"
      },
      "geometry": {
        "type": "Point",
        "coordinates": [
          -111.83656686643498,
          0.9839776041451244
        ]
      }
    }
  ]
}